#aV2010  8  1  0  0   .00000000      96 DD+AD WGS84 FIT  NGA
## 1595       .00000000   900.00000000 55409  .0000000000000
+   31     1  2  3  4  5  6  7  8  9 10 11 12 13 14 15 16 17
+         18 19 20 21 22 23 24 26 27 28 29 30 31 32  0  0  0
+          0  0  0  0  0  0  0  0  0  0  0  0  0  0  0  0  0
+          0  0  0  0  0  0  0  0  0  0  0  0  0  0  0  0  0
+          0  0  0  0  0  0  0  0  0  0  0  0  0  0  0  0  0
++         0  0  0  0  0  0  0  0  0  0  0  0  0  0  0  0  0
++         0  0  0  0  0  0  0  0  0  0  0  0  0  0  0  0  0
++         0  0  0  0  0  0  0  0  0  0  0  0  0  0  0  0  0
++         0  0  0  0  0  0  0  0  0  0  0  0  0  0  0  0  0
++         0  0  0  0  0  0  0  0  0  0  0  0  0  0  0  0  0
%c cc cc ccc ccc cccc cccc cccc cccc ccccc ccccc ccccc ccccc
%c cc cc ccc ccc cccc cccc cccc cccc ccccc ccccc ccccc ccccc
%f  0.0000000  0.000000000  0.00000000000  0.000000000000000
%f  0.0000000  0.000000000  0.00000000000  0.000000000000000
%i    0    0    0    0      0      0      0      0         0
%i    0    0    0    0      0      0      0      0         0
/*      NGA, ST. LOUIS,MO.                                  
/*   EPHEMERIS COMPUTED FROM  3 DAYS OF DATA                
/* CCCCCCCCCCCCCCCCCCCCCCCCCCCCCCCCCCCCCCCCCCCCCCCCCCCCCCCCC
/* CCCCCCCCCCCCCCCCCCCCCCCCCCCCCCCCCCCCCCCCCCCCCCCCCCCCCCCCC
*  2010  8  1  2 45   .00000000                                                 
P  1  -4758.142950  25200.717434   6527.909416   -147.167446                    
V  1  -2596.028994  -8492.303776  30475.992853      -.040114                    
P  2  -5281.337700 -18562.225918  18428.290614    277.340256                    
V  2  21004.927798  10266.760490  15890.183063       .029904                    
P  3    624.420953  17964.534797 -19833.772092    589.134487                    
V  3 -20759.347606  13275.314111  11937.456715       .050983                    
P  4   9449.475027 -12511.791432  21277.783168    136.909515                    
V  4  23576.352307  14155.868882  -1773.333416       .081636                    
P  5  -2964.494181 -25946.962470  -4595.117327    -19.367784                    
V  5   2995.852222  -5806.377992  31015.317751      -.037409                    
P  6  -5747.879569  18885.310045 -17519.954200    551.352330                    
V  6 -20415.823524  10241.993439  17726.716862      -.145649                    
P  7  23023.176846   3516.115658 -12951.399789     -1.881836                    
V  7  13048.735552   9999.418124  25753.790888      -.000372                    
P  8  16121.741476  -5128.460303 -20631.974104      6.289807                    
V  8  21025.887086  15196.314326  12135.864717       .000666                    
P  9 -20462.437883 -16050.244579  -6006.732410     21.645753                    
V  9   6990.766709   1628.496233 -30983.151658       .022188                    
P 10   5799.247420 -24736.998438   6900.554711    -48.482672                    
V 10   2920.667293   9213.223747  30120.288775      -.009671                    
P 11  24507.952324  10312.690585  -3252.234602    -79.449943                    
V 11  -5028.010411   3331.285707 -29469.072715      -.026098                    
P 12 -12070.650993 -15232.171434  18210.874412    -87.743084                    
V 12   1847.900990 -22922.735733 -17835.442237       .039265                    
P 13  24058.912596  -3703.676802  10543.838456    300.661558                    
V 13 -11578.351329   7191.536328  28527.967342      -.007117                    
P 14 -19720.698097  15795.426567   8097.980394     73.790822                    
V 14  -9913.642801   2741.370065 -30152.882747       .039926                    
P 15 -10038.539794 -11850.025326 -21540.315333   -230.786869                    
V 15  23548.166454 -14016.679946  -3141.160525       .059002                    
P 16  -1309.089468  26372.930374    300.976572    -95.007217                    
V 16  -2662.411401   -456.031185  32200.699703      -.035592                    
P 17  21106.002738 -15148.054857   5049.929243    164.556858                    
V 17   6947.209601   -375.852649 -31021.659407       .017360                    
P 18 -15476.607948   4320.664971 -20813.860468     84.278256                    
V 18     66.116663 -27254.557614  -6011.167561       .023289                    
P 19  10215.427863  11891.017586 -21452.540969    -54.086297                    
V 19 -24630.426930  11690.688944  -4928.143823      -.029824                    
P 20  13646.214908  13583.928943  18182.266985     52.686197                    
V 20  -1435.706917  23453.778422 -16276.639992      -.004134                    
P 21 -22236.914953   -897.630083 -14591.851876    -77.891529                    
V 21 -14936.116811 -11940.362963  22320.060831      -.026188                    
P 22 -12263.265348  17413.417412 -15639.390972    166.307269                    
V 22  -1789.270004 -20370.453979 -21146.153747      -.008090                    
P 23  19536.463271   3292.315645  17830.667645    360.519869                    
V 23 -19121.222168  11997.658223  18389.969477      -.016515                    
P 24  -1237.260767  16839.974805 -20491.736287    309.132741                    
V 24 -22252.778240 -13782.667761  -9699.211513       .030935                    
P 26  -1263.472080 -15414.703807 -22064.325277    -90.803628                    
V 26  24367.880916 -10997.798773   6854.468443      -.064455                    
P 27 -18661.953503 -16505.598015  -8782.716325    175.496786                    
V 27  11619.803736   3773.078121 -29338.447421       .035186                    
P 28  12694.246733 -14732.847354 -17476.710408     -8.776031                    
V 28    622.133735  23296.018027 -18956.797120       .012162                    
P 29 -23727.439657   3214.007863  11538.227997    138.580516                    
V 29  11801.792891  -8810.292822  26969.436641       .029409                    
P 30 -15106.231058  -2256.285098  21327.892506    265.478181                    
V 30   -540.738252 -28053.068433  -3245.659859       .032904                    
P 31  -6262.557718  13638.507633  22110.728286    -20.533513                    
V 31 -23723.678108 -13991.130471   2099.427954       .027341                    
P 32   8745.077361  20341.427736  15257.639870    -50.948593                    
V 32  -3600.784040  18383.346328 -22607.761953      -.087589                    
EOF
